STARLINK-1666
1 16357C 20062AK  21326.11285100 -.00011512  00000-0 -77139-3 0  3263
2 16357  53.0531 198.2466 0001855  70.4956 134.1725 15.06405987    19
